HELIOS 2A               
1 28492U 04049A   23049.47344372  .00004500  00000+0  42630-3 0  9990
2 28492  98.2661   9.5046 0014302   0.9575 359.1634 14.94082100971848
SPIRALE A               
1 33751U 09008C   23049.20923545  .00000378  00000+0  12903-2 0  9998
2 33751   2.0974  22.9400 5468003 349.9682   2.4173  4.58929878206013
SPIRALE B               
1 33752U 09008D   23048.96300261  .00004573  00000+0  16093-2 0  9990
2 33752   2.2197 346.3990 6839151  51.9060 351.9515  2.83877721132089
SAPPHIRE                
1 39088U 13009C   23048.82819510  .00000417  00000+0  16321-3 0  9999
2 39088  98.4170 243.3349 0010227 267.3007  92.7008 14.34388464522295
